CCSDS_OMM_VERS,COMMENT,CREATION_DATE,ORIGINATOR,OBJECT_NAME,OBJECT_ID,CENTER_NAME,REF_FRAME,TIME_SYSTEM,MEAN_ELEMENT_THEORY,EPOCH,MEAN_MOTION,ECCENTRICITY,INCLINATION,RA_OF_ASC_NODE,ARG_OF_PERICENTER,MEAN_ANOMALY,EPHEMERIS_TYPE,CLASSIFICATION_TYPE,NORAD_CAT_ID,ELEMENT_SET_NO,REV_AT_EPOCH,BSTAR,MEAN_MOTION_DOT,MEAN_MOTION_DDOT,SEMIMAJOR_AXIS,PERIOD,APOAPSIS,PERIAPSIS,OBJECT_TYPE,RCS_SIZE,COUNTRY_CODE,LAUNCH_DATE,SITE,DECAY_DATE,FILE,GP_ID,TLE_LINE0,TLE_LINE1,TLE_LINE2
2,GENERATED VIA SPACE-TRACK.ORG API,2023-04-16T08:16:12,18 SPCS,KSF3-C,2023-001K,EARTH,TEME,UTC,SGP4,2023-04-16T03:12:57.453984,15.15271495,0.0010011,97.4836,166.57,222.4951,137.5507,0,U,55018,999,1566,0.00095905,0.0001803,0,6898.291,95.032,527.062,513.251,PAYLOAD,MEDIUM,LUXE,2023-01-03,AFETR,,3888347,230139225,0 KSF3-C,1 55018U 23001K   23106.13399831  .00018030  00000-0  95905-3 0  9997,2 55018  97.4836 166.5700 0010011 222.4951 137.5507 15.15271495 15667
2,GENERATED VIA SPACE-TRACK.ORG API,2023-04-17T02:22:52,18 SPCS,KSF3-C,2023-001K,EARTH,TEME,UTC,SGP4,2023-04-16T17:28:47.267040,15.15293315,0.0010069,97.4836,167.1554,220.4711,139.5773,0,U,55018,999,1575,0.00096865,0.00018223,0,6898.225,95.031,527.036,513.144,PAYLOAD,MEDIUM,LUXE,2023-01-03,AFETR,,3888799,230201453,0 KSF3-C,1 55018U 23001K   23106.72832485  .00018223  00000-0  96865-3 0  9999,2 55018  97.4836 167.1554 0010069 220.4711 139.5773 15.15293315 15758
2,GENERATED VIA SPACE-TRACK.ORG API,2023-04-17T19:13:34,18 SPCS,KSF3-C,2023-001K,EARTH,TEME,UTC,SGP4,2023-04-17T02:59:20.035680,15.15309305,0.001015,97.4836,167.5458,219.0532,140.9968,0,U,55018,999,1581,0.0010092,0.00019,0,6898.177,95.03,527.043,513.04,PAYLOAD,MEDIUM,LUXE,2023-01-03,AFETR,,3889215,230236927,0 KSF3-C,1 55018U 23001K   23107.12453745  .00019000  00000-0  10092-2 0  9993,2 55018  97.4836 167.5458 0010150 219.0532 140.9968 15.15309305 15817
2,GENERATED VIA SPACE-TRACK.ORG API,2023-04-18T03:25:12,18 SPCS,KSF3-C,2023-001K,EARTH,TEME,UTC,SGP4,2023-04-17T17:15:08.579520,15.15331821,0.0010177,97.4835,168.131,216.9701,143.0831,0,U,55018,999,1590,0.0010182,0.00019183,0,6898.108,95.029,526.994,512.953,PAYLOAD,MEDIUM,LUXE,2023-01-03,AFETR,,3889391,230266571,0 KSF3-C,1 55018U 23001K   23107.71884930  .00019183  00000-0  10182-2 0  9994,2 55018  97.4835 168.1310 0010177 216.9701 143.0831 15.15331821 15904
2,GENERATED VIA SPACE-TRACK.ORG API,2023-04-17T22:56:13,18 SPCS,KSF3-C,2023-001K,EARTH,TEME,UTC,SGP4,2023-04-17T17:15:08.579520,15.15331821,0.0010177,97.4835,168.131,216.9701,143.0831,0,U,55018,999,1590,0.0010182,0.00019183,0,6898.108,95.029,526.994,512.953,PAYLOAD,MEDIUM,LUXE,2023-01-03,AFETR,,3889341,230240651,0 KSF3-C,1 55018U 23001K   23107.71884930  .00019183  00000-0  10182-2 0  9994,2 55018  97.4835 168.1310 0010177 216.9701 143.0831 15.15331821 15904
2,GENERATED VIA SPACE-TRACK.ORG API,2023-04-18T17:45:33,18 SPCS,KSF3-C,2023-001K,EARTH,TEME,UTC,SGP4,2023-04-18T02:45:40.523040,15.15346712,0.001024,97.4835,168.5213,215.3775,144.6779,0,U,55018,999,1596,0.0010151,0.00019132,0,6898.063,95.028,526.992,512.865,PAYLOAD,MEDIUM,LUXE,2023-01-03,AFETR,,3889684,230301056,0 KSF3-C,1 55018U 23001K   23108.11505235  .00019132  00000-0  10151-2 0  9997,2 55018  97.4835 168.5213 0010240 215.3775 144.6779 15.15346712 15964
2,GENERATED VIA SPACE-TRACK.ORG API,2023-04-19T04:08:55,18 SPCS,KSF3-C,2023-001K,EARTH,TEME,UTC,SGP4,2023-04-18T17:01:27.880608,15.15367963,0.0010284,97.4833,169.1066,213.303,146.7557,0,U,55018,999,1605,0.0010144,0.00019131,0,6897.999,95.026,526.958,512.77,PAYLOAD,MEDIUM,LUXE,2023-01-03,AFETR,,3889987,230333622,0 KSF3-C,1 55018U 23001K   23108.70935047  .00019131  00000-0  10144-2 0  9991,2 55018  97.4833 169.1066 0010284 213.3030 146.7557 15.15367963 16054
2,GENERATED VIA SPACE-TRACK.ORG API,2023-04-19T10:36:12,18 SPCS,KSF3-C,2023-001K,EARTH,TEME,UTC,SGP4,2023-04-19T04:07:04.196640,15.15385272,0.001029,97.4834,169.5619,211.5219,148.5398,0,U,55018,999,1612,0.0010277,0.00019393,0,6897.946,95.025,526.909,512.713,PAYLOAD,MEDIUM,LUXE,2023-01-03,AFETR,,3890165,230338911,0 KSF3-C,1 55018U 23001K   23109.17157635  .00019393  00000-0  10277-2 0  9999,2 55018  97.4834 169.5619 0010290 211.5219 148.5398 15.15385272 16123
2,GENERATED VIA SPACE-TRACK.ORG API,2023-04-20T04:30:18,18 SPCS,KSF3-C,2023-001K,EARTH,TEME,UTC,SGP4,2023-04-19T16:47:45.177216,15.15403877,0.0010326,97.4832,170.0822,209.4479,150.6173,0,U,55018,999,1620,0.0010088,0.00019044,0,6897.89,95.024,526.877,512.632,PAYLOAD,MEDIUM,LUXE,2023-01-03,AFETR,,3890520,230396809,0 KSF3-C,1 55018U 23001K   23109.69982844  .00019044  00000-0  10088-2 0  9997,2 55018  97.4832 170.0822 0010326 209.4479 150.6173 15.15403877 16204
2,GENERATED VIA SPACE-TRACK.ORG API,2023-04-20T17:41:10,18 SPCS,KSF3-C,2023-001K,EARTH,TEME,UTC,SGP4,2023-04-20T03:53:20.580000,15.15416324,0.0010361,97.483,170.5377,207.6505,152.4177,0,U,55018,999,1627,0.00081431,0.00015358,0,6897.852,95.023,526.864,512.57,PAYLOAD,MEDIUM,LUXE,2023-01-03,AFETR,,3890827,230432187,0 KSF3-C,1 55018U 23001K   23110.16204375  .00015358  00000-0  81431-3 0  9992,2 55018  97.4830 170.5377 0010361 207.6505 152.4177 15.15416324 16273
2,GENERATED VIA SPACE-TRACK.ORG API,2023-04-21T02:49:26,18 SPCS,KSF3-C,2023-001K,EARTH,TEME,UTC,SGP4,2023-04-20T21:19:15.431520,15.15439575,0.0010421,97.4826,171.2531,204.8784,155.1948,0,U,55018,999,1638,0.00079966,0.0001509,0,6897.781,95.022,526.835,512.458,PAYLOAD,MEDIUM,LUXE,2023-01-03,AFETR,,3891109,230463210,0 KSF3-C,1 55018U 23001K   23110.88837305  .00015090  00000-0  79966-3 0  9999,2 55018  97.4826 171.2531 0010421 204.8784 155.1948 15.15439575 16384
2,GENERATED VIA SPACE-TRACK.ORG API,2023-04-21T20:48:05,18 SPCS,KSF3-C,2023-001K,EARTH,TEME,UTC,SGP4,2023-04-21T09:59:54.772224,15.15453475,0.0010468,97.4824,171.7734,203.0604,157.016,0,U,55018,999,1646,0.0007216,0.00013613,0,6897.739,95.021,526.825,512.384,PAYLOAD,MEDIUM,LUXE,2023-01-03,AFETR,,3891529,230499629,0 KSF3-C,1 55018U 23001K   23111.41660616  .00013613  00000-0  72160-3 0  9996,2 55018  97.4824 171.7734 0010468 203.0604 157.0160 15.15453475 16466
2,GENERATED VIA SPACE-TRACK.ORG API,2023-04-21T15:56:12,18 SPCS,KSF3-C,2023-001K,EARTH,TEME,UTC,SGP4,2023-04-21T09:59:54.772224,15.15453475,0.0010468,97.4824,171.7734,203.0604,157.016,0,U,55018,999,1646,0.0007216,0.00013613,0,6897.739,95.021,526.825,512.384,PAYLOAD,MEDIUM,LUXE,2023-01-03,AFETR,,3891462,230473252,0 KSF3-C,1 55018U 23001K   23111.41660616  .00013613  00000-0  72160-3 0  9996,2 55018  97.4824 171.7734 0010468 203.0604 157.0160 15.15453475 16466
2,GENERATED VIA SPACE-TRACK.ORG API,2023-04-22T05:05:44,18 SPCS,KSF3-C,2023-001K,EARTH,TEME,UTC,SGP4,2023-04-21T21:05:28.860864,15.15467051,0.0010526,97.482,172.2287,201.5001,158.5791,0,U,55018,999,1653,0.00076152,0.00014377,0,6897.698,95.02,526.824,512.302,PAYLOAD,MEDIUM,LUXE,2023-01-03,AFETR,,3891716,230531773,0 KSF3-C,1 55018U 23001K   23111.87880626  .00014377  00000-0  76152-3 0  9994,2 55018  97.4820 172.2287 0010526 201.5001 158.5791 15.15467051 16539
2,GENERATED VIA SPACE-TRACK.ORG API,2023-04-22T07:26:12,18 SPCS,KSF3-C,2023-001K,EARTH,TEME,UTC,SGP4,2023-04-22T03:32:53.829600,15.15488193,0.0010485,97.4803,172.4899,201.2409,185.7393,0,U,55018,999,1657,0.00094487,0.00017874,0,6897.634,95.019,526.731,512.267,PAYLOAD,MEDIUM,LUXE,2023-01-03,AFETR,,3891831,230534778,0 KSF3-C,1 55018U 23001K   23112.14784525  .00017874  00000-0  94487-3 0  9992,2 55018  97.4803 172.4899 0010485 201.2409 185.7393 15.15488193 16578
2,GENERATED VIA SPACE-TRACK.ORG API,2023-04-22T20:34:52,18 SPCS,KSF3-C,2023-001K,EARTH,TEME,UTC,SGP4,2023-04-22T11:36:39.259008,15.1550074,0.0010536,97.4799,172.8201,200.442,218.2058,0,U,55018,999,1662,0.00094718,0.00017924,0,6897.596,95.018,526.728,512.193,PAYLOAD,MEDIUM,LUXE,2023-01-03,AFETR,,3892071,230565526,0 KSF3-C,1 55018U 23001K   23112.48378772  .00017924  00000-0  94718-3 0  9995,2 55018  97.4799 172.8201 0010536 200.4420 218.2058 15.15500740 16623
2,GENERATED VIA SPACE-TRACK.ORG API,2023-04-23T06:46:12,18 SPCS,KSF3-C,2023-001K,EARTH,TEME,UTC,SGP4,2023-04-22T16:37:43.580928,15.15503815,0.0010562,97.4802,173.0269,196.9322,281.6486,0,U,55018,999,1665,0.00092479,0.000175,0,6897.586,95.018,526.737,512.166,PAYLOAD,MEDIUM,LUXE,2023-01-03,AFETR,,3892344,230599564,0 KSF3-C,1 55018U 23001K   23112.69286552  .00017500  00000-0  92479-3 0  9994,2 55018  97.4802 173.0269 0010562 196.9322 281.6486 15.15503815 16652
2,GENERATED VIA SPACE-TRACK.ORG API,2023-04-23T14:56:13,18 SPCS,KSF3-C,2023-001K,EARTH,TEME,UTC,SGP4,2023-04-23T09:48:40.079808,15.15524226,0.0010467,97.4808,173.7329,195.7109,226.3783,0,U,55018,999,1676,0.00089628,0.00016966,0,6897.525,95.017,526.609,512.17,PAYLOAD,MEDIUM,LUXE,2023-01-03,AFETR,,3892543,230604001,0 KSF3-C,1 55018U 23001K   23113.40879722  .00016966  00000-0  89628-3 0  9998,2 55018  97.4808 173.7329 0010467 195.7109 226.3783 15.15524226 16763
2,GENERATED VIA SPACE-TRACK.ORG API,2023-04-23T18:27:51,18 SPCS,KSF3-C,2023-001K,EARTH,TEME,UTC,SGP4,2023-04-23T09:48:40.079808,15.15524226,0.0010467,97.4808,173.7329,195.7109,226.3783,0,U,55018,999,1676,0.00089628,0.00016966,0,6897.525,95.017,526.609,512.17,PAYLOAD,MEDIUM,LUXE,2023-01-03,AFETR,,3892688,230633527,0 KSF3-C,1 55018U 23001K   23113.40879722  .00016966  00000-0  89628-3 0  9998,2 55018  97.4808 173.7329 0010467 195.7109 226.3783 15.15524226 16763
2,GENERATED VIA SPACE-TRACK.ORG API,2023-04-23T22:26:12,18 SPCS,KSF3-C,2023-001K,EARTH,TEME,UTC,SGP4,2023-04-23T14:59:50.094240,15.15528291,0.0010292,97.4809,173.9474,195.6623,324.6058,0,U,55018,999,1679,0.00087902,0.00016639,0,6897.512,95.016,526.476,512.278,PAYLOAD,MEDIUM,LUXE,2023-01-03,AFETR,,3892752,230635207,0 KSF3-C,1 55018U 23001K   23113.62488535  .00016639  00000-0  87902-3 0  9990,2 55018  97.4809 173.9474 0010292 195.6623 324.6058 15.15528291 16799
